TOMORROW-S1             
1 60479U 24149M   26068.72470524  .00008620  00000+0  28856-3 0  9996
2 60479  97.3791 149.6044 0001819 207.2040 152.9106 15.31198362 86867
STARLINK-34815          
1 65099U 25167X   26068.19074829  .00015670  00000+0  54021-3 0  9995
2 65099  53.1601  28.9619 0001305  81.9313 278.1836 15.30192544 33405
